{
  "norad_id": 61900,
  "name": "2024-205G",
  "history": [
    {
      "epoch": "2026-03-28T22:05:27.763008Z",
      "apogee_km": 551.6469983961779,
      "perigee_km": 522.5401014884146,
      "latitude_deg": -8.528996012454374e-05,
      "longitude_deg": 2.618448917903079,
      "height_km": 534.9845793010177,
      "semi_major_axis_km": 6915.2305499422955,
      "eccentricity": 0.00210455,
      "inclination_deg": 97.4184,
      "raan_deg": 160.3181,
      "arg_perigee_deg": 69.3689,
      "mean_anomaly_deg": 290.9794,
      "mean_motion_rev_day": 15.09707339
    },
    {
      "epoch": "2026-03-29T04:27:14.048064Z",
      "apogee_km": 551.6209425194238,
      "perigee_km": 522.5327869188695,
      "latitude_deg": 2.4170009704327264e-05,
      "longitude_deg": -92.82913284262187,
      "height_km": 534.7746276741893,
      "semi_major_axis_km": 6915.213864719146,
      "eccentricity": 0.0021032,
      "inclination_deg": 97.4183,
      "raan_deg": 160.5747,
      "arg_perigee_deg": 68.5373,
      "mean_anomaly_deg": 291.8097,
      "mean_motion_rev_day": 15.09712803
    },
    {
      "epoch": "2026-03-30T04:18:51.741792Z",
      "apogee_km": 551.497290457226,
      "perigee_km": 522.5131633274295,
      "latitude_deg": -3.9620603610358755e-05,
      "longitude_deg": -90.75349586383123,
      "height_km": 533.9727267375073,
      "semi_major_axis_km": 6915.142226892328,
      "eccentricity": 0.0020957,
      "inclination_deg": 97.4183,
      "raan_deg": 161.5373,
      "arg_perigee_deg": 65.3077,
      "mean_anomaly_deg": 295.0331,
      "mean_motion_rev_day": 15.09736263
    },
    {
      "epoch": "2026-03-30T05:54:18.215424Z",
      "apogee_km": 551.4854556433011,
      "perigee_km": 522.5204238860042,
      "latitude_deg": 3.421812405610339e-05,
      "longitude_deg": -114.61503934712115,
      "height_km": 533.91873034517,
      "semi_major_axis_km": 6915.139939764652,
      "eccentricity": 0.00209432,
      "inclination_deg": 97.4183,
      "raan_deg": 161.6014,
      "arg_perigee_deg": 65.0642,
      "mean_anomaly_deg": 295.2761,
      "mean_motion_rev_day": 15.09737012
    }
  ]
}